ponto,localizacao,data_instalacao,cota_terreno,latitude,longitude,latitude_decimal,longitude_decimal,utme,utmn,bacia,municipio,natureza,nome,subbacia,situacao,uf,uso_agua,data_perfuracao,metodo_perfuracao,perfurador,diametro_boca_tubo_milimetros,topo,base,tipo_penetracao,condicao,tipo_captacao,data_medicao,nivel_agua,vazao,nivel_bombeando,profundidade_inicial,profundidade_final,tipo_formacao,data_teste,tipo_teste_bombeamento,metodo_interpretacao,surgencia,unidade_de_bombeamento,nivel_dinamico,nivel_estatico,vazao_especifica,coeficiente_armazenamento,vazao_livre,permeabilidade,transmissividade,vazao_estabilizacao,tipo_bomba,data_analise,data_coleta,condutividade_eletrica,cor,odor,sabor,temperatura,turbidez,solidos_sedimentaveis,solidos_suspensos,aspecto_natural
3500005439,,,599,230929,454651,-23.158055,-45.780833,420050,7438750,Atlantico Sul-Leste,Sao jose dos campos,Po�o tubular,8060060 SP,Rio Paraiba do Sul,Equipado,SP,Abastecimento industrial,1975-01-01,Rotativo,HIDROPOCOS LTDA,152.4,,,PARCIAL,LIVRE,�NICA,,,,,0,100,Grupo Taubate,,,,N,,47,16,0.48,,,,,15,Bomba submersa,,,,,,,,,,,
3500005442,,,575,230845,454653,-23.145833,-45.781388,420000,7440100,Atlantico Sul-Leste,Sao jose dos campos,Po�o tubular,8060063 SP,Rio Paraiba do Sul,Equipado,SP,Abastecimento industrial,1975-01-01,Rotativo,T - JANNER,152.4,,,,LIVRE,,,,,,0,137,Grupo Taubate,,,,N,,53.6,29,0.98,,,,,24,Bomba submersa,,,,,,,,,,,
3500005443,,,565,230927,454719,-23.1575,-45.788611,419250,7438800,Atlantico Sul-Leste,Sao jose dos campos,Po�o tubular,8060064 SP,Rio Paraiba do Sul,Equipado,SP,Abastecimento industrial,1974-01-01,Rotativo,CORNER,,,,,LIVRE,,,,,,0,200,Grupo Taubate,,,,N,,34.5,8,0.91,,,,,24,Bomba submersa,,,,,,,,,,,
3500005444,,,580,230904,454712,-23.151111,-45.786666,419450,7439500,Atlantico Sul-Leste,Sao jose dos campos,Po�o tubular,8060065 SP,Rio Paraiba do Sul,Equipado,SP,Abastecimento dom�stico,,Rotativo,HIDROPOCOS LTDA,,,,,LIVRE,,,,,,0,190,,,,,N,,,,,,,,,12,Bomba submersa,,,,,,,,,,,
3500005445,,,560,230754,454721,-23.131666,-45.789166,419200,7441650,Atlantico Sul-Leste,Sao jose dos campos,Po�o tubular,8060066 SP,Rio Paraiba do Sul,Equipado,SP,Abastecimento dom�stico,,Rotativo,HIDROPOCOS LTDA,,,,,LIVRE,,,,,,0,135,,,,,N,,16.5,12,13.91,,,,,62.6,Bomba submersa,,,,,,,,,,,
3500005446,,,570,230921,454705,-23.155833,-45.784722,419650,7439000,Atlantico Sul-Leste,Sao jose dos campos,Po�o tubular,8060067 SP,Rio Paraiba do Sul,Equipado,SP,Abastecimento industrial,1973-01-01,Rotativo,CORNER,203.2,7,162,Parcial,Livre,�nica,,,,,0,162,Grupo Taubate,,,,N,,48,35,6.15,,,,,80,Bomba submersa,,,,,,,,,,,
3500005502,,,560,230824,454526,-23.14,-45.757222,422450,7440750,Atlantico Sul-Leste,Cacapava,Po�o tubular,8060124 SP,Rio Paraiba do Sul,Equipado,SP,Abastecimento industrial,1974-01-01,Rotativo,CORNER,,0,150,Parcial,,�nica,,,,,0,170,,,,,,,,,,,,,,,Bomba submersa,,,,,,,,,,,
3500005503,,,575,230758,454505,-23.132777,-45.751388,423050,7441550,Atlantico Sul-Leste,Cacapava,Po�o tubular,8060125 SP,Rio Paraiba do Sul,Equipado,SP,Abastecimento industrial,1962-01-01,Rotativo,T - JANNER,152.4,0,242,Total,,�nica,,,,,0,248.5,Complexo Embu,,,,N,,45,7,0.95,,,,,36,Bomba submersa,,,,,,,,,,,
3500005504,,,560,230813,454532,-23.136944,-45.758888,422300,7441100,Atlantico Sul-Leste,Sao jose dos campos,Po�o tubular,8060126 SP,Rio Paraiba do Sul,Equipado,SP,Abastecimento industrial,1973-01-01,Rotativo,CORNER,152.4,0,150,Parcial,Livre,�nica,,,,,0,150,Grupo Taubate,,,,N,,33,19,1.29,,,,,18,Compressor de ar,,,,,,,,,,,
3500005505,FAZENDA MUTA,,555,230530,454716,-23.091666,-45.787777,419300,7446100,Atlantico Sul-Leste,Cacapava,Po�o tubular,8060127 SP,Rio Paraiba do Sul,Equipado,SP,Abastecimento dom�stico,1970-01-01,Rotativo,HIDROPOCOS LTDA,,0,100,Parcial,,�nica,,,,,0,100,,,,,N,,,,,,,,,32,Compressor de ar,,,,,,,,,,,
3500005515,FAZENDA SAO JOSE,,601,230924,454732,-23.156666,-45.792222,418900,7438900,Atlantico Sul-Leste,Sao jose dos campos,Po�o tubular,8060137 SP,Rio Paraiba do Sul,Equipado,SP,Abastecimento dom�stico,1971-01-01,Rotativo,CORNER,,0,132,Parcial,Livre,�nica,,,,,0,132,Grupo Taubate,,,,N,,35,20,1.73,,,,,26,Compressor de ar,,,,,,,,,,,
3500005518,CHACARA DO MARIO,,580,231125,454828,-23.190277,-45.807777,417320,7435150,Atlantico Sul-Leste,Sao jose dos campos,Po�o tubular,8060140 SP,Rio Paraiba do Sul,N�o instalado,SP,Outros (lazer.etc.),1976-01-01,Rotativo,HIDROPOCOS LTDA,,,,,,,,,,,0,,,,,,,,,,,,,,,,,,,,,,,,,,,
3500005524,,,579,230901,454632,-23.150277,-45.775555,420600,7439600,Atlantico Sul-Leste,Sao jose dos campos,Po�o tubular,8060146 SP,Rio Paraiba do Sul,N�o instalado,SP,Abastecimento industrial,,Rotativo,HIDROPOCOS LTDA,,,,,,,,,,,0,,,,,,,,,,,,,,,,,,,,,,,,,,,
3500006805,EUGENIO DE MELO,,,230847,454653,-23.146388,-45.781388,420000,7440050,Atlantico Sul-Leste,Sao jose dos campos,Po�o tubular,3060111 SP,Rio Paraiba do Sul,Equipado,SP,Abastecimento industrial,,Rotativo,TRIGIL LTDA,203.2,0,137,Parcial,Semi-Confinado,�nica,,,,,0,137,Formacao Pindamonhangaba,,,,N,,53.15,29,1.04,,,,,25,Bomba submersa,1995-03-24,1995-03-20,,,,,,0.46,,,
3500006807,EUGENIO DE MELO,,,230913,454656,-23.153611,-45.782222,419900,7439250,Atlantico Sul-Leste,Sao jose dos campos,Po�o tubular,3060113 SP,Rio Paraiba do Sul,Equipado,SP,Abastecimento industrial,,Rotativo,T - JANNER,254,0,155,Parcial,Semi-Confinado,�nica,,,,,0,155,Formacao Pindamonhangaba,,,,N,,60,48,13.17,,,,,158,Bomba submersa,1995-03-24,1995-03-20,,,,,,0.3,,,
3500006828,SEDE,,581,230655,454300,-23.115277,-45.716666,426600,7443500,Atlantico Sul-Leste,Cacapava,Po�o tubular,3070003 SP,Rio Paraiba do Sul,Equipado,SP,Abastecimento industrial,1989-09-23,Rotativo,CORNER,203.2,0,191,Parcial,Semi-Confinado,�nica,,,,,0,191,Formacao Pindamonhangaba,,,,N,,46.35,36.66,5.09,,,,,49.3,Bomba submersa,1996-01-05,1995-11-16,,,,,,,,,
3500006829,SEDE,,581,230655,454304,-23.115277,-45.717777,426500,7443500,Atlantico Sul-Leste,Cacapava,Po�o tubular,3070004 SP,Rio Paraiba do Sul,Equipado,SP,Abastecimento industrial,1979-10-31,Rotativo,HIDROPOCOS LTDA,203.2,0,200,Parcial,Semi-Confinado,�nica,,,,,0,200,Formacao Pindamonhangaba,,,,N,,43,36,5.59,,,,,39.1,Bomba submersa,1996-01-05,1995-11-16,,2.5,,,,0.38,,,
3500006830,CAMPO GRANDE,,580,230602,454127,-23.100555,-45.690833,429250,7445150,Atlantico Sul-Leste,Cacapava,Po�o tubular,3070026 SP,Rio Paraiba do Sul,Equipado,SP,Abastecimento industrial,1958-03-30,Rotativo,HIDROGESP,152.4,0,100,Parcial,Semi-Confinado,�nica,,,,,0,100,Formacao Pindamonhangaba,,,,N,,16,11,20.4,,,,,102,Bomba submersa,2001-06-18,2001-06-18,,,,,,,,,
3500006831,CAMPO GRANDE,,560,230557,454120,-23.099166,-45.688888,429450,7445300,Atlantico Sul-Leste,Cacapava,Po�o tubular,3070027 SP,Rio Paraiba do Sul,Equipado,SP,Abastecimento industrial,1979-08-16,Rotativo,CORNER,152.4,0,164,Parcial,Semi-Confinado,�nica,,,,,0,164,Formacao Pindamonhangaba,,,,N,,36.71,14.74,6.55,,,,,144,Bomba submersa,2001-06-18,2001-06-18,,,,,,,,,
3500007497,SEDE,,575,230722,454159,-23.122777,-45.699722,428350,7442700,Atlantico Sul-Leste,Cacapava,Po�o tubular,,Rio Paraiba do Sul,Equipado,SP,,,Percussao,HIDROGESP,203.2,0,241,Parcial,,�nica,,,,,0,241,,1995-11-17,Escalonado,,N,Bomba submersa,97.08,72.19,4.1462434712736,,,,,103.2,,,,,,,,,,,,
3500007498,SEDE,,570,230702,454209,-23.117222,-45.7025,428040,7443320,Atlantico Sul-Leste,Cacapava,Po�o tubular,,Rio Paraiba do Sul,Equipado,SP,Abastecimento urbano,,Rotativo,HIDROGESP,203.2,0,200.5,Parcial,,�nica,,,,,0,200.5,,,,,N,,91.12,78,6.1,,,,,80,Bomba submersa,,,,,,,,,,,
3500007499,SEDE-R.NICOLAU J NICOLINO S/NR,,575,230651,454216,-23.114166,-45.704444,427850,7443650,Atlantico Sul-Leste,Cacapava,Po�o tubular,,Rio Paraiba do Sul,Equipado,SP,Abastecimento urbano,,Rotativo,HIDROGESP,,0,193.2,Parcial,,�nica,,,,,0,193.2,Formacao cristalina,1994-10-01,Escalonado,,N,Bomba submersa,73.68,56.35,4.65089440276976,,,,,80.6,,1998-12-09,1998-12-09,,,,,,,,,
3500007500,SEDE - AV. BRASIL S/NR,1997-08-06,560,230639,454232,-23.110833,-45.708888,427400,7444020,Atlantico Sul-Leste,Cacapava,Po�o tubular,,Rio Paraiba do Sul,Equipado,SP,Abastecimento urbano,1997-08-06,Rotativo,CPA - CENTRAL PERFURADORA,203.2,0,140,Parcial,,�nica,,,,,0,140,Formacao cristalina,1997-08-06,Escalonado,,N,Bomba submersa,74.12,53.65,1.59843673668784,,,,,32.72,Bomba submersa,,,,,,,,,,,
3500007502,RUA MOREIRA DA COSTA,,555,230625,454305,-23.106944,-45.718055,426450,7444430,Atlantico Sul-Leste,Cacapava,Po�o tubular,,Rio Paraiba do Sul,Equipado,SP,Abastecimento urbano,,Rotativo,POLITI - ENGENHARIA E CONST,152.4,,,,CONFINADO,,,,,,0,94,Formacao cristalina,,,,N,,72.86,44.85,3.11,,,,,87.1,Bomba submersa,,,,,,,,,,,
3500007503,FINAL DA RUA E,,575,230620,454057,-23.105555,-45.6825,430100,7444600,Atlantico Sul-Leste,Cacapava,Po�o tubular,,Rio Paraiba do Sul,Equipado,SP,Abastecimento urbano,,Rotativo,POLITI - ENGENHARIA E CONST,152.4,0,229,Parcial,,�nica,,,,,0,229,Formacao cacapava,,,,N,,71.42,41.9,4.07,,,,,120,Bomba submersa,,,,,,,,,,,
3500007504,MARGEM DO RIB. DOS MUDOS,,560,230602,454109,-23.100555,-45.685833,429750,7445150,Atlantico Sul-Leste,Cacapava,Po�o tubular,,Rio Paraiba do Sul,,SP,Abastecimento urbano,,Rotativo,POLITI - ENGENHARIA E CONST,,,,,CONFINADO,,,,,,0,220,,,,,N,,47.26,25.66,5.56,,,,,120,Bomba submersa,,,,,,,,,,,
3500007505,,,550,230635,454338,-23.109722,-45.727222,425510,7444120,Atlantico Sul-Leste,Cacapava,Po�o tubular,,Rio Paraiba do Sul,,SP,Abastecimento urbano,,Rotativo,AIR DRILL,152.4,0,213.86,Parcial,,�nica,,,,,0,213.86,Formacao cacapava,,,,N,,61.93,44,6.13,,,,,110,Bomba submersa,,,,,,,,,,,
3500007506,,,620,230640,453843,-23.111111,-45.645277,433900,7444000,Atlantico Sul-Leste,Cacapava,Po�o tubular,,Rio Paraiba do Sul,,SP,Abastecimento urbano,,Rotativo,CPA,,0,250,Parcial,,�nica,,,,,0,250,Grupo Taubate,,,,N,,46.3,36.26,1.49,,,,,15,Bomba submersa,,,,,,,,,,,
3500007507,PQ RESIDENCIAL MARIA EUMIRA,,580,230715,454239,-23.120833,-45.710833,427200,7442900,Atlantico Sul-Leste,Cacapava,Po�o tubular,,Rio Paraiba do Sul,N�o instalado,SP,Abastecimento urbano,,Rotativo,CPA,,,,,,,,,,,0,210,Formacao cristalina,,,,N,,100.23,79.9,1.58,,,,,32.1,Bomba submersa,,,,,,,,,,,
3500007508,VILA MARIANA,,580,230735,454533,-23.126388,-45.759166,422250,7442250,Atlantico Sul-Leste,Cacapava,Po�o tubular,,Rio Paraiba do Sul,,SP,Abastecimento urbano,,Rotativo,HIDROGESP,203.2,,,,,�NICA,,,,,0,198,Formacao cristalina,,,,N,,97.32,34.92,1.46,,,,,90.8,Bomba submersa,,,,,,,,,,,
3500007509,,,550,230615,454235,-23.104166,-45.709722,427310,7444760,Atlantico Sul-Leste,Cacapava,Po�o tubular,,Rio Paraiba do Sul,N�o instalado,SP,Abastecimento urbano,,Rotativo,HIDROGESP,304.8,,,,CONFINADO,,,,,,0,96.5,Formacao cristalina,,,,N,,80.3,38.73,2.16,,,,,89.9,Bomba submersa,,,,,,,,,,,
3500007510,,,565,230800,454228,-23.133333,-45.707777,427510,7441510,Atlantico Sul-Leste,Cacapava,Po�o tubular,,Rio Paraiba do Sul,N�o instalado,SP,Abastecimento urbano,,Rotativo,HIDROGESP,304.8,,,,CONFINADO,,,,,,0,210,Formacao cacapava,,,,N,,62.33,47.1,8.07,,,,,122.9,Bomba submersa,,,,,,,,,,,
3500007511,FAZENDA BORDA DA MATA   P26,,580,230741,454150,-23.128055,-45.697222,428600,7442100,Atlantico Sul-Leste,Cacapava,Po�o tubular,,Rio Paraiba do Sul,Equipado,SP,Abastecimento urbano,,Rotativo,CPA,203.2,0,201,Parcial,,�nica,,,,,0,201,,1996-11-09,Escalonado,,N,Bomba submersa,100.12,44.2,0.742131616595136,,,,,41.5,Bomba submersa,1998-12-12,1998-12-10,,,,,,,,,
3500007512,,,560,230734,454235,-23.126111,-45.709722,427320,7442330,Atlantico Sul-Leste,Cacapava,Po�o tubular,,Rio Paraiba do Sul,Equipado,SP,Abastecimento urbano,,Rotativo,HIDROGESP,304.8,,,,CONFINADO,,,,,,0,163.5,Formacao cristalina,,,,N,,82.5,53.8,4.18,,,,,120,Bomba submersa,,,,,,,,,,,
3500007787,P79-JARDIM CEREJEIRAS,,620,231137,454736,-23.193611,-45.793333,418810,7434810,Atlantico Sul-Leste,Sao jose dos campos,Po�o tubular,,Rio Paraiba do Sul,,SP,,1983-08-22,,TRIO VALE LTDA.,,0,155,Parcial,Semi-Confinado,�nica,,,,,0,155,Grupo Taubate,,,,N,,48,40,1.53,,,,,12.2,Bomba submersa,,,,,,,,,,,
3500007792,P77-JARDIM CASTANHEIRO,,585,231111,454737,-23.186388,-45.793611,418770,7435600,Atlantico Sul-Leste,Sao jose dos campos,Po�o tubular,,Rio Paraiba do Sul,,SP,,,Rotativo,HIDROPOCOS LTDA,,0,196,Parcial,Semi-Confinado,�nica,,,,,0,196,Grupo Taubate,,,,N,,72.6,58.7,1.29,,,,,18,,,,,,,,,,,,
3500007994,P 7,,,231022,454403,-23.172777,-45.734166,424850,7437150,Atlantico Sul-Leste,Cacapava,Po�o tubular,,Rio Paraiba do Sul,,SP,Abastecimento urbano,,,T - JANNER,,0,144,Total,Livre,�nica,,,,,0,151,Complexo Embu,,,,N,,89,16,0.73,,,,,53.3,,,,,,,,,,,,
3500007995,P 3,,,230628,454225,-23.107777,-45.706944,427600,7444350,Atlantico Sul-Leste,Cacapava,Po�o tubular,,Rio Paraiba do Sul,,SP,,,,T - JANNER,,0,100,Parcial,Livre,�nica,,,,,0,100,Grupo Taubate,,,,N,,14,9,13.2,,,,,66,,,,,,,,,,,,
3500007996,SEDE P9 - AV FUNDEVAL,,560,230618,454228,-23.105,-45.707777,427500,7444650,Atlantico Sul-Leste,Cacapava,Po�o tubular,,Rio Paraiba do Sul,,SP,Abastecimento urbano,,Rotativo,T - JANNER,,0,99,Parcial,Semi-Confinado,�nica,,,,,0,99,Grupo Taubate,,,,N,,36,26.4,13.54,,,,,130,,,,,,,,,,,,
3500007997,P 11 - LORENA,,,230833,454229,-23.1425,-45.708055,427500,7440500,Atlantico Sul-Leste,Cacapava,Po�o tubular,,Rio Paraiba do Sul,,SP,Abastecimento urbano,,,,,,,,,,,,,,0,192,,,,,N,,72.6,42.05,2.59,,,,,79.2,,,,,,,,,,,,
3500007998,V STA ISABEL-PROX CAIXA D AGUA,,575,230656,454214,-23.115555,-45.703888,427900,7443500,Atlantico Sul-Leste,Cacapava,Po�o tubular,,Rio Paraiba do Sul,,SP,Abastecimento urbano,,,T - JANNER,,0,148,Total,Semi-Confinado,�nica,,,,,0,150,Complexo Embu,,,,N,,44,16.85,5.52,,,,,150,Bomba submersa,,,,,,,,,,,
3500008000,FAZENDA SANTO ANTONIO  P14,,580,230733,454236,-23.125833,-45.71,427300,7442350,Atlantico Sul-Leste,Cacapava,Po�o tubular,,Rio Paraiba do Sul,,SP,Abastecimento urbano,,Rotativo,T - JANNER,,0,165,Parcial,Semi-Confinado,�nica,,,,,0,165,Grupo Taubate,,,,N,,47.72,32.54,6.52,,,,,99,Bomba submersa,,,,,,,,,,,
3500008001,SEDE  P15-AV FUNDEVAL S/NR,,570,230641,454307,-23.111388,-45.718611,426400,7443950,Atlantico Sul-Leste,Cacapava,Po�o tubular,,Rio Paraiba do Sul,,SP,Abastecimento urbano,,,HIDROGESP,,0,132,Total,Semi-Confinado,�nica,,,,,0,140,Complexo Embu,,,,N,,86.24,33.3,0.94,,,,,49.5,Bomba submersa,,,,,,,,,,,
3500008002,SEDE  P16-AO LADO ALAMBIQUE,,580,230731,454232,-23.125277,-45.708888,427400,7442400,Atlantico Sul-Leste,Cacapava,Po�o tubular,,Rio Paraiba do Sul,,SP,Abastecimento urbano,,Rotativo,HIDROGESP,,0,204,Parcial,Semi-Confinado,�nica,,,,,0,204,Grupo Taubate,,,,N,,52.73,38.24,6.03,,,,,87.4,Bomba submersa,,,,,,,,,,,
3500008003,P 7,,590,231024,454401,-23.173333,-45.733611,424910,7437080,Atlantico Sul-Leste,Cacapava,Po�o tubular,,Rio Paraiba do Sul,,SP,Abastecimento urbano,,Roto-percussao,UNIPER,,0,145,Total,Semi-Confinado,�nica,,,,,0,250,Complexo Embu,1997-04-08,Escalonado,,N,Bomba submersa,99.9,59.7,1,,,,,40.2,Bomba submersa,,,,,,,,,,,
3500008005,P 2 - CACAPAVA VELHA,,630,230700,453833,-23.116666,-45.6425,434200,7443400,Atlantico Sul-Leste,Cacapava,Po�o tubular,,Rio Paraiba do Sul,,SP,Abastecimento urbano,,Rotativo,,,0,252,Parcial,Semi-Confinado,�nica,,,,,0,252,Grupo Taubate,,,,N,,131.86,30.31,0.1,,,,,10.56,Bomba submersa,,,,,,,,,,,
3500008007,FAZENDA PIEDADE  P3,,600,231033,454321,-23.175833,-45.7225,426050,7436800,Atlantico Sul-Leste,Cacapava,Po�o tubular,,Rio Paraiba do Sul,,SP,,,Rotativo,JOSE PASSARELLI LTDA,,0,137.5,Total,Semi-Confinado,�nica,,,,,0,150,Complexo Embu,,,,N,,115.95,40.7,0.02,,,,,1.7,Bomba submersa,,,,,,,,,,,
3500008008,P 4-GUAMIRIM-TERR.DR JOSE LEIT,,600,231132,454414,-23.192222,-45.737222,424550,7435000,Atlantico Sul-Leste,Cacapava,Po�o tubular,,Rio Paraiba do Sul,,SP,,,Percussao,HIDROPOCOS LTDA,,56,122.5,Parcial,Confinado,Simult�nea,,,,,0,122.5,Complexo Embu,,,,N,,94.19,25.18,0.06,,,,,4.3,Bomba submersa,,,,,,,,,,,
3500008009,P 5 - GUAMIRIM,,590,231038,454354,-23.177222,-45.731666,425100,7436650,Atlantico Sul-Leste,Cacapava,Po�o tubular,,Rio Paraiba do Sul,,SP,,,Roto-percussao,POLITI - ENGENHARIA E CONST,,0,164,Total,Semi-Confinado,�nica,,,,,0,170,Complexo Embu,,,,N,,114.45,51.58,0.12,,,,,7.27,Bomba submersa,,,,,,,,,,,
3500008010,P 6 - GUAMIRIM,,585,231113,454412,-23.186944,-45.736666,424580,7435580,Atlantico Sul-Leste,Cacapava,Po�o tubular,,Rio Paraiba do Sul,,SP,,,Roto-percussao,HIDROGESP,,0,94,Total,Semi-Confinado,�nica,,,,,0,202,Complexo Embu,,,,N,,86,56,0.34,,,,,10.1,Bomba submersa,,,,,,,,,,,
3500008011,SEDE  P30-PQ RES.NOVA CACAPAVA,,580,230618,454114,-23.105,-45.687222,429620,7444660,Atlantico Sul-Leste,Cacapava,Po�o tubular,3018,Rio Paraiba do Sul,N�o instalado,SP,,,,CPA - CENTRAL PERFURADORA,,0,202.5,Parcial,Semi-Confinado,�nica,,,,,0,202.5,Grupo Taubate,,,,N,,83,50,2.42,,,,,80,Bomba submersa,,,,,,,,,,,
3500008365,JD GALO BRANCO/EUGENIO DE MELO,,568,230834,454640,-23.142777,-45.777777,420350,7440440,Atlantico Sul-Leste,Sao jose dos campos,Po�o tubular,SABESP 0000 - PL151,Rio Paraiba do Sul,,SP,,1997-05-07,Rotativo,ARTESIA POCOS,685.8,0,229.4,Parcial,Semi-Confinado,�nica,,,,,0,229.4,Grupo Taubate,1997-05-06,,,N,Bomba submersa,94,51.65,1.86,,,,,80,,,,,,,,,,,,
3500008366,EUGENIO DE MELO,,570,230819,454623,-23.138611,-45.773055,420850,7440900,Atlantico Sul-Leste,Sao jose dos campos,Po�o tubular,SABESP 0000 PL - 152,Rio Paraiba do Sul,,SP,,1996-02-17,Rotativo,POLITI - ENGENHARIA E CONST,508,0,230,Parcial,Semi-Confinado,�nica,,,,,0,230,Grupo Taubate,1996-02-16,Escalonado,,N,Bomba submersa,56.83,42.65,6.98166431593794,,,,,99,,,,,,,,,,,,
3500008369,EUG�NIO DE MELO,,565,230800,454613,-23.133333,-45.770277,421110,7441480,Atlantico Sul-Leste,Sao jose dos campos,Po�o tubular,SABESP 0000 PL-117,Rio Paraiba do Sul,,SP,,1983-04-06,,TRIO VALE LTDA.,304.8,0,104.5,Parcial,Semi-Confinado,�nica,,,,,0,104.5,Grupo Taubate,1983-04-06,,,N,Air-lift,21,11,,,,,,17600,,,,,,,,,,,,
3500008370,JARDIM SANTA IN�S,,620,230924,454816,-23.156666,-45.804444,417650,7438900,Atlantico Sul-Leste,Sao jose dos campos,Po�o tubular,SABESP 0929 PL-64,Rio Paraiba do Sul,,SP,Abastecimento urbano,1982-05-22,Rotativo,AIR LIFT,660.4,0,250.61,Parcial,Semi-Confinado,�nica,,,,,0,250.61,Grupo Taubate,1982-05-30,,,N,Air-lift,90,82,1.41375,,,,,11.31,,,,,,,,,,,,
3500008380,JARDIM AMERICANO,,580,231058,454814,-23.182777,-45.803888,417700,7436000,Atlantico Sul-Leste,Sao jose dos campos,Po�o tubular,SABESP 0000 - PL 163,Rio Paraiba do Sul,,SP,,1999-10-12,Rotativo,CENTRAL P. ARARAQUARENSE LTDA.,660.4,0,168,Total,Semi-Confinado,�nica,,,,,0,192,Complexo Embu,1999-10-12,Escalonado,,N,,78.85,62.7,3.52321981424149,,,,,56.9,,,,,,,,,,,,
3500008395,JARDIM NOVO HORIZONTE,,625,231148,454704,-23.196666,-45.784444,419700,7434470,Atlantico Sul-Leste,Sao jose dos campos,Po�o tubular,SABESP 0000 - PL 140,Rio Paraiba do Sul,,SP,,1996-10-16,Rotativo,GEOPLAN,609.6,0,174,Total,Semi-Confinado,�nica,,,,,0,178,Complexo Embu,1996-10-16,Rebaixamento,,N,Bomba submersa,137.51,124.61,1.82170542635659,,,,,23.5,,,,,,,,,,,,
3500008397,PARQUE NOVA ESPERAN�A,,590,231200,454742,-23.2,-45.795,418630,7434100,Atlantico Sul-Leste,Sao jose dos campos,Po�o tubular,SABESP 0000 - PL141,Rio Paraiba do Sul,,SP,,1996-09-18,Rotativo,POLITI - ENGENHARIA E CONST,,0,250.7,Parcial,Semi-Confinado,�nica,,,,,0,250.7,Grupo Taubate,1996-09-18,,,N,Bomba submersa,78.07,60.7,2.07253886010363,,,,,36,,,,,,,,,,,,
3500008398,BAIRRO EUG�NIO DE MELO,,560,230824,454722,-23.14,-45.789444,419160,7440750,Atlantico Sul-Leste,Sao jose dos campos,Po�o tubular,SABESP0697 - PL44,Rio Paraiba do Sul,,SP,Abastecimento urbano,1980-06-18,,HIDROPOCOS LTDA,,0,160,Parcial,Semi-Confinado,�nica,,,,,0,160,Grupo Taubate,1994-10-19,,,N,Bomba submersa,24.6,23.5,,,,,,,Bomba submersa,,,,,,,,,,,
3500008399,JARDIM AMERICANO / TR�S JOS�,,549.27,231043,454822,-23.178611,-45.806111,417500,7436480,Atlantico Sul-Leste,Sao jose dos campos,Po�o tubular,SABESP 0709 - PL52,Rio Paraiba do Sul,,SP,,1980-07-28,Rotativo,HIDROPOCOS LTDA,584.2,0,150,Parcial,Semi-Confinado,�nica,,,,,0,150,Grupo Taubate,1980-07-28,Escalonado,,N,Bomba submersa,41.78,25.73,3.28971962616822,,,,,52.8,,,,,,,,,,,,
3500008400,PARQUE RESIDENCIAL UNI�O,,,231026,454729,-23.173888,-45.791388,418999,7436999,Atlantico Sul-Leste,Sao jose dos campos,Po�o tubular,SABESP 0000 - PL000,Rio Paraiba do Sul,,SP,,1992-06-19,Rotativo,GEOPLAN,457.2,0,162,Total,Semi-Confinado,�nica,,,,,0,167,Complexo Embu,1992-06-18,Escalonado,,N,Bomba submersa,127.25,114.08,1.62490508731967,,,,,21.4,,,,,,,,,,,,
3500008401,JARDIM DAS CASTANHEIRAS,,585,231057,454739,-23.1825,-45.794166,418720,7436020,Atlantico Sul-Leste,Sao jose dos campos,Po�o tubular,SABESP 0000 - PL161,Rio Paraiba do Sul,,SP,,1998-06-17,Rotativo,GEOPLAN,660.4,0,161,Total,Semi-Confinado,�nica,,,,,0,166,Complexo Embu,1998-06-17,Escalonado,,N,Bomba submersa,100.44,67.61,1.50776728601889,,,,,49.5,,,,,,,,,,,,
3500008406,JARDIM SANTA IN�S II,,620,231014,454818,-23.170555,-45.805,417590,7437350,Atlantico Sul-Leste,Sao jose dos campos,Po�o tubular,SABESP 0000 - PL62,Rio Paraiba do Sul,,SP,Abastecimento urbano,,,,,,,,,,,,,,0,999,,,,,,,,,,,,,,,,,,,,,,,,,,
3500008407,EUG�NIO DE MELO,,568,230848,454759,-23.146666,-45.799722,418120,7440000,Atlantico Sul-Leste,Sao jose dos campos,Po�o tubular,SABESP1429 - PL63,Rio Paraiba do Sul,,SP,,1981-05-25,,,,0,115,Parcial,Semi-Confinado,�nica,,,,,0,115,Grupo Taubate,1981-05-25,,,N,Air-lift,40.2,21,0.572916666666667,,,,,11,Bomba submersa,,,,,,,,,,,
3500008408,PARQUE NOVA ESPERAN�A,,625,231151,454728,-23.1975,-45.791111,419020,7434370,Atlantico Sul-Leste,Sao jose dos campos,Po�o tubular,SABESP0000 - PL118,Rio Paraiba do Sul,,SP,,,,,,,,,,,,,,,0,999.99,,1992-10-19,,,N,Bomba submersa,84,55,0.310344827586207,,,,,9,Bomba submersa,,,,,,,,,,,
3500008413,EUGENIO DE MELO,,560,230809,454653,-23.135833,-45.781388,420000,7441220,Atlantico Sul-Leste,Sao jose dos campos,Po�o tubular,SABESP 1165 - PL127,Rio Paraiba do Sul,,SP,,1989-09-30,Rotativo,HIDROGESP,660.4,0,223,Total,Semi-Confinado,�nica,,,,,0,224,Complexo Embu,1989-09-30,,,N,Bomba submersa,43.67,30.47,8.33333333333333,,,,,110,Bomba submersa,,,,,,,,,,,
3500008414,SANTA IN�S I,,620,231035,454721,-23.176388,-45.789166,419210,7436720,Atlantico Sul-Leste,Sao jose dos campos,Po�o tubular,SABESP 0000 - PL156,Rio Paraiba do Sul,,SP,,1997-04-08,Rotativo,CONSTROLLI,,0,250,Parcial,Semi-Confinado,�nica,,,,,0,250,Grupo Taubate,1997-04-09,Escalonado,,N,Bomba submersa,128.1,83,1.72106430155211,,,,,77.62,,,,,,,,,,,,
3500008415,JARDIM SANTA IN�S II,,585,230951,454818,-23.164166,-45.805,417600,7438060,Atlantico Sul-Leste,Sao jose dos campos,Po�o tubular,SABESP1155 - PL96,Rio Paraiba do Sul,,SP,,1989-05-13,Rotativo,HIDROGESP,609.6,0,234,Parcial,Semi-Confinado,�nica,,,,,0,234,Grupo Taubate,1989-05-13,,,N,Bomba submersa,73.02,65.2,10.1023017902813,,,,,79,Bomba submersa,,,,,,,,,,,
3500008419,JARDIM NOVA MICHIGAN,,600,231113,454741,-23.186944,-45.794722,418660,7435550,Atlantico Sul-Leste,Sao jose dos campos,Po�o tubular,SABESP1158 - PL71,Rio Paraiba do Sul,,SP,,1989-07-09,Rotativo,HIDROGESP,660.4,0,158,Total,Semi-Confinado,�nica,,,,,0,160,Complexo Embu,1989-07-09,Escalonado,,N,Bomba submersa,85.71,72.07,7.11143695014663,,,,,97,,,,,,,,,,,,
3500008425,JARDIM PARARANGABA,,560,231023,454819,-23.173055,-45.805277,417550,7437080,Atlantico Sul-Leste,Sao jose dos campos,Po�o tubular,HSJ - 896 - PL122,Rio Paraiba do Sul,,SP,,1991-05-06,Rotativo,HIDROGESP,,0,164,Parcial,Semi-Confinado,�nica,,,,,0,164,Grupo Taubate,1991-05-16,Rebaixamento,,N,,63,48.45,8.28178694158076,,,,,120.5,Bomba submersa,,,,,,,,,,,
3500027359,,2004-12-06,,230710,454302,-23.119444,-45.717222,426570,7443066,Rio Parana,Cacapava,Po�o tubular,DAEE FL.307 P.116,Rios Parana. Tiete e outros,Equipado,SP,Abastecimento industrial,2004-12-06,Rotativo,OUTRAS,,0,104,Parcial,,�nica,,,,,0,104,Formacao cacapava,2004-12-06,Rebaixamento,,N,,79.35,70.8,2.80701754385965,,,,,24,Bomba submersa,,,,,,,,,,,
3500030309,EST. MUN DO CAJURU,2006-05-25,620,231109,454837,-23.185833,-45.810278,417060,7435660,Rio Parana,Sao jose dos campos,Po�o tubular,SIDAS/DAEE FL.306 - P.201 / CPRM - 10615,Rios Parana. Pardo e outros,Equipado,SP,Abastecimento dom�stico,2006-05-25,,OUTROS,,0,150,Parcial,,�nica,,,,,0,150,Grupo Taubate,2006-05-25,Rebaixamento,,N,,62.34,38.75,0.508690122933446,,,,,12,Bomba submersa,2006-06-19,2006-05-25,,4,,,,3,,,
3500030313,AV. PRES.TANCREDO NEVES.1.200,2006-09-22,612,231058,454840,-23.182778,-45.811111,416980,7436020,Rio Parana,Sao jose dos campos,Po�o tubular,SIDAS/DAEE FL.306 - P.206 / CPRM - 10620,Rios Parana. Pardo e outros,Equipado,SP,Abastecimento industrial,2006-09-22,,OUTROS,,0,81,Parcial,,�nica,,,,,0,81,Grupo Taubate,2006-09-22,Rebaixamento,,N,,74.5,36.2,0.10443864229765,,,,,4,Bomba submersa,2006-09-22,2006-06-12,,,,,,0,,,
3500030317,EST. MUN DO GUAMIRIM S/A,2003-05-06,649,231038,454337,-23.177222,-45.726944,425600,7436660,Rio Parana,Cacapava,Po�o tubular,SIDAS/DAEE FL.307 - P.114 / CPRM - 10634,Rios Parana. Pardo e outros,Equipado,SP,Abastecimento industrial,2003-05-06,Rotativo,OUTROS,,52,90,Parcial,,�nica,,,,,0,90,Grupo Taubate,2003-05-06,Rebaixamento,,N,Bomba submersa,72.7,54.7,0.222222222222222,,,,,4,Bomba submersa,,,,,,,,,,,
3500030318,ROD. JO�O DO AMARAL GURGEL.KM 08,2005-10-28,616,231050,454323,-23.180556,-45.723056,426010,7436290,Rio Parana,Cacapava,Po�o tubular,SIDAS/DAEE FL.307 - P.115 / CPRM - 10635,Rios Parana. Pardo e outros,Equipado,SP,Abastecimento industrial,2005-10-28,Rotativo,OUTROS,,0,90,Parcial,,�nica,,,,,0,90,Grupo Taubate,2005-10-28,Rebaixamento,,N,Bomba submersa,79.98,35.5,0.483363309352518,,,,,21.5,Bomba submersa,2005-10-28,2005-10-06,,1,,,,2,,,
3500030319,ROD. JO�O DO AMARAL GURGEL.KM 08,2005-02-12,586,230302,453652,-23.050556,-45.614444,437060,7450730,Rio Parana,Taubate,Po�o tubular,SIDAS/DAEE FL.307 - P.118 / CPRM - 10636,Rios Parana. Pardo e outros,Equipado,SP,Abastecimento industrial,2005-02-12,Rotativo,OUTROS,,0,120,Parcial,,�nica,,,,,0,120,Grupo Taubate,2005-02-12,Rebaixamento,,N,,110,18,0.016304347826087,,,,,1.5,Bomba submersa,2006-03-20,2006-03-06,,14,,,,5,,,
3500030320,AV.D. PEDRO I.W 7777,2005-05-07,600,230337,453701,-23.060278,-45.616944,436810,7449650,Rio Parana,Taubate,Po�o tubular,SIDAS/DAEE FL.307 - P.120 / CPRM - 10638,Rios Parana. Pardo e outros,Equipado,SP,Abastecimento dom�stico,2005-05-07,Rotativo,HIGESA CONSULTORIA SERVICOS E COMERCIO LTDA,,0,270,Parcial,,�nica,,,,,0,270,Grupo Taubate,2005-05-07,Rebaixamento,,N,,195,34.6,0.064526184538653,,,,,10.35,Bomba submersa,,,,,,,,,,,
3500030340,AV. HENRY NESTL�.3.000,2007-12-20,,230712,454325,-23.12,-45.723611,425910,7443010,Rio Parana,Cacapava,Po�o tubular,SIDAS/DAEE FL.307 - P.135 / CPRM - 10652,Rios Parana. Pardo e outros,Equipado,SP,Abastecimento industrial,2007-12-20,Rotativo,OUTROS,,0,136,Total,,�nica,,,,,0,170,Corpo Cristalino,2007-12-20,Rebaixamento,,N,Bomba submersa,102.44,76.23,0.863029378099962,,,,,22.62,Bomba submersa,2018-02-07,2018-01-18,,,,,,3,,,
3500030433,ROD.SJC 250 ( VIA DUTRA KM 138),2004-06-16,700,230917,454714,-23.154722,-45.787222,419420,7439120,Rio Parana,Sao jose dos campos,Po�o tubular,SIDAS/DAEE FL.306 - P.194 / CPRM 10608,Rios Parana. Pardo e outros,N�o instalado,SP,Outros (lazer.etc.),2004-06-16,Rotativo,HIDROGEO,,0,131.5,Parcial,,�nica,,,,,0,131.5,Grupo Taubate,2004-06-16,Rebaixamento,,N,,62.16,48.5,1.09809663250366,,,,,15,,,,,,,,,,,,
3500050980,R. DOS VIDRACEIROS 09.PARQUE NOVO HORIZONTE,,,231152,454700,-23.197778,-45.783333,419850,7434370,Atlantico Sul-Leste,Sao jose dos campos,Po�o tubular,SIDAS/DAEE FL.306 - P.102,Rio Paraiba do Sul,,SP,Abastecimento urbano,1980-08-02,,HIDROPOCOS LTDA,,,,,,,,,,,0,163,,,,,,,,,,,,,,,,,,,,,,,,,,
3500050981,R. DOS FERREIROS 900.PARQUE NOVO HORIZONTE,,,231149,454727,-23.196944,-45.790833,419070,7434470,Atlantico Sul-Leste,Sao jose dos campos,Po�o tubular,SIDAS/DAEE FL.306 - P.103,Rio Paraiba do Sul,,SP,Abastecimento urbano,1979-02-05,,HIDROPOCOS LTDA,,,,,,,,,,,0,151,,,,,,,,,,,,,,,,,,,,,,,,,,
3500050982,R. PINTORES MECANICO.JARDIM NOVO HORIZONTE,,,231132,454701,-23.192222,-45.783611,419800,7434980,Atlantico Sul-Leste,Sao jose dos campos,Po�o tubular,SIDAS/DAEE FL.306 - P.104,Rio Paraiba do Sul,,SP,Abastecimento urbano,1988-04-13,,HIDROGESP,,,,,,,,,,,0,136,,,,,,,,,,,,,,,,,,,,,,,,,,
3500050983,ROD. PRESIDENTE DUTRA KM 140.EUGENIO DE MELO,,,230920,454700,-23.155556,-45.783333,419800,7439050,Atlantico Sul-Leste,Sao jose dos campos,Po�o tubular,SIDAS/DAEE FL.306 - P.105,Rio Paraiba do Sul,,SP,Abastecimento urbano,1975-03-25,,HIDROPOCOS LTDA,,,,,,,,,,,0,100,,,,,,,,,,,,,,,,,,,,,,,,,,
3500050984,ROD. PRESIDENTE DUTRA KM 140.EUGENIO DE MELO,,,230925,454657,-23.156944,-45.7825,419900,7438900,Atlantico Sul-Leste,Sao jose dos campos,Po�o tubular,SIDAS/DAEE FL.306 - P.106,Rio Paraiba do Sul,,SP,Abastecimento industrial,1991-07-30,,HIDROGESP,,,,,,,,,,,0,152,,,,,,,,,,,,,,,,,,,,,,,,,,
3500050985,AV. TANCREDO NEVES 128.JARDIM PARAISO DO SOL,,,231106,454750,-23.185,-45.797222,418420,7435770,Atlantico Sul-Leste,Sao jose dos campos,Po�o tubular,SIDAS/DAEE FL.306 - P.107,Rio Paraiba do Sul,,SP,Abastecimento urbano,1980-10-10,,HIDROPOCOS LTDA,,,,,,,,,,,0,152,,,,,,,,,,,,,,,,,,,,,,,,,,
3500050986,R. AMBROSIO MOLINA 1100.EUGENIO DE MELO,,,230854,454646,-23.148333,-45.779444,420200,7439850,Atlantico Sul-Leste,Sao jose dos campos,Po�o tubular,SIDAS/DAEE FL.306 - P.112,Rio Paraiba do Sul,,SP,Abastecimento industrial,2000-10-08,,COMP. T. JANER,,,,,,,,,,,0,150,,,,,,,,,,,,,,,,,,,,,,,,,,
3500051006,ROD. PRESIDENTE DUTRA KM 141.EUGENIO DE MELO,,,230934,454729,-23.159444,-45.791389,418990,7438610,Atlantico Sul-Leste,Sao jose dos campos,Po�o tubular,SIDAS/DAEE FL.306 - P.143,Rio Paraiba do Sul,,SP,Abastecimento dom�stico,1998-06-25,,,,,,,,,,,,,0,149.7,,,,,,,,,,,,,,,,,,,,,,,,,,
3500051007,ROD. PRESIDENTE DUTRA KM 134.5.EUGENIO DE MELO,,,230820,454539,-23.138889,-45.760833,422100,7440900,Atlantico Sul-Leste,Sao jose dos campos,Po�o tubular,SIDAS/DAEE FL.306 - P.144,Rio Paraiba do Sul,,SP,Abastecimento industrial,1986-07-02,,RAFAEL FARO POLITI,,,,,,,,,,,0,200,,,,,,,,,,,,,,,,,,,,,,,,,,
3500051008,ROD. PRESIDENTE DUTRA KM 138.EUGENIO DE MELO,,,230824,454605,-23.14,-45.768056,421370,7440780,Atlantico Sul-Leste,Sao jose dos campos,Po�o tubular,SIDAS/DAEE FL.306 - P.145,Rio Paraiba do Sul,,SP,Abastecimento industrial,1980-06-18,,CORNER S/A,,,,,,,,,,,0,160,,,,,,,,,,,,,,,,,,,,,,,,,,
3500051009,ROD. PRESIDENTE DUTRA KM 138.EUGENIO DE MELO,,,230823,454606,-23.139722,-45.768333,421350,7440800,Atlantico Sul-Leste,Sao jose dos campos,Po�o tubular,SIDAS/DAEE FL.306 - P.146,Rio Paraiba do Sul,,SP,Abastecimento industrial,1996-08-29,,AGUABRAS LTDA,,,,,,,,,,,0,199,,,,,,,,,,,,,,,,,,,,,,,,,,
3500051012,ROD. PRESIDENTE DUTRA KM 133.5.SANTA LUZIA,,,230801,454516,-23.133611,-45.754444,422750,7441500,Atlantico Sul-Leste,Cacapava,Po�o tubular,SIDAS/DAEE FL.306 - P.15,Rio Paraiba do Sul,,SP,Abastecimento industrial,1989-08-18,,HIDROGESP,,,,,,,,,,,0,166,,,,,,,,,,,,,,,,,,,,,,,,,,
3500051014,ROD. PRESIDENTE DUTRA KM 136.5.SANTA LUZIA,,,230824,454527,-23.14,-45.7575,422450,7440790,Atlantico Sul-Leste,Cacapava,Po�o tubular,SIDAS/DAEE FL.306 - P.151,Rio Paraiba do Sul,,SP,Abastecimento industrial,1998-12-21,,HIDROGESP,,,,,,,,,,,0,200,,,,,,,,,,,,,,,,,,,,,,,,,,
3500051015,EST. VELHA RIO - SP 5300.EUGENIO DE MELO,,,230908,454758,-23.152222,-45.799444,418150,7439400,Atlantico Sul-Leste,Sao jose dos campos,Po�o tubular,SIDAS/DAEE FL.306 - P.152,Rio Paraiba do Sul,,SP,Abastecimento industrial,1997-07-19,,HIDROGEO PERFUR. DE POCOS,,,,,,,,,,,0,150,,,,,,,,,,,,,,,,,,,,,,,,,,
3500051022,ROD. PRESIDENTE DUTRA 133.5.SANTA LUZIA,,,230802,454520,-23.133889,-45.755556,422650,7441450,Atlantico Sul-Leste,Cacapava,Po�o tubular,SIDAS/DAEE FL.306 - P.16,Rio Paraiba do Sul,,SP,Abastecimento industrial,1987-10-22,,HIDROGESP,,,,,,,,,,,0,166.5,,,,,,,,,,,,,,,,,,,,,,,,,,
3500051028,ROD. PRESIDENTE DUTRA KM 134.EUGENIO DE MELO,,,230814,454537,-23.137222,-45.760278,422150,7441090,Atlantico Sul-Leste,Sao jose dos campos,Po�o tubular,SIDAS/DAEE FL.306 - P.167,Rio Paraiba do Sul,,SP,Abastecimento industrial,1973-08-07,,CORNER S/A,,,,,,,,,,,0,150,,,,,,,,,,,,,,,,,,,,,,,,,,
3500051045,AV. PRESIDENTE TANCREDO ALMEIDA NEVES 1200.JARDIM,,,231103,454839,-23.184167,-45.810833,417020,7435860,Atlantico Sul-Leste,Sao jose dos campos,Po�o tubular,SIDAS/DAEE FL.306 - P.198,Rio Paraiba do Sul,,SP,Abastecimento industrial,2000-10-08,,,,,,,,,,,,,0,118,,,,,,,,,,,,,,,,,,,,,,,,,,
3500051050,AV. PRESIDENTE TANCREDO ALMEIDA NEVES 1200.PORONGA,,,231102,454832,-23.183889,-45.808889,417210,7435880,Atlantico Sul-Leste,Sao jose dos campos,Po�o tubular,SIDAS/DAEE FL.306 - P.211,Rio Paraiba do Sul,,SP,Outros (lazer.etc.),2000-10-08,,,,,,,,,,,,,0,140,,,,,,,,,,,,,,,,,,,,,,,,,,
3500051054,ROD. PRESIDENTE DUTRA S/N KM 134.EUGENIO DE MELO,,,230811,454530,-23.136389,-45.758333,422350,7441180,Atlantico Sul-Leste,Sao jose dos campos,Po�o tubular,SIDAS/DAEE FL.306 - P.218,Rio Paraiba do Sul,,SP,Abastecimento industrial,2004-12-23,,,,,,,,,,,,,0,150,,,,,,,,,,,,,,,,,,,,,,,,,,
3500051059,ROD. PRESIDENTE DUTRA KM 138.EUGENIO DE MELO,,,230922,454741,-23.156111,-45.794722,418660,7438980,Atlantico Sul-Leste,Sao jose dos campos,Po�o tubular,SIDAS/DAEE FL.306 - P.223,Rio Paraiba do Sul,,SP,Abastecimento industrial,2000-10-08,,AGUABRAS LTDA,,,,,,,,,,,0,165,,,,,,,,,,,,,,,,,,,,,,,,,,
3500051062,R. AMBROSIO MOLINA 1090.EUGENIO DE MELO,,,230859,454700,-23.149722,-45.783333,419810,7439700,Atlantico Sul-Leste,Sao jose dos campos,Po�o tubular,SIDAS/DAEE FL.306 - P.227,Rio Paraiba do Sul,,SP,Abastecimento industrial,2007-06-29,,,,,,,,,,,,,0,150,,,,,,,,,,,,,,,,,,,,,,,,,,
3500051066,R. 21 DE ABRIL 1121.EUGENIO DE MELO,,,230842,454645,-23.145,-45.779167,420230,7440200,Atlantico Sul-Leste,Sao jose dos campos,,SIDAS/DAEE FL.306 - P.231,Rio Paraiba do Sul,,SP,,2000-10-08,,,,,,,,,,,,,0,8,,,,,,,,,,,,,,,,,,,,,,,,,,
3500051067,R. 21 DE ABRIL 1121.EUGENIO DE MELO,,,230842,454645,-23.145,-45.779167,420230,7440210,Atlantico Sul-Leste,Sao jose dos campos,,SIDAS/DAEE FL.306 - P.232,Rio Paraiba do Sul,,SP,,2000-10-08,,,,,,,,,,,,,0,8,,,,,,,,,,,,,,,,,,,,,,,,,,
3500051068,R. 21 DE ABRIL 1121.EUGENIO DE MELO,,,230842,454645,-23.145,-45.779167,420220,7440220,Atlantico Sul-Leste,Sao jose dos campos,,SIDAS/DAEE FL.306 - P.233,Rio Paraiba do Sul,,SP,,2000-10-08,,,,,,,,,,,,,0,7.5,,,,,,,,,,,,,,,,,,,,,,,,,,
3500051069,R. 21 DE ABRIL 1121.EUGENIO DE MELO,,,230842,454645,-23.145,-45.779167,420230,7440210,Atlantico Sul-Leste,Sao jose dos campos,,SIDAS/DAEE FL.306 - P.234,Rio Paraiba do Sul,,SP,,2000-10-08,,,,,,,,,,,,,0,8,,,,,,,,,,,,,,,,,,,,,,,,,,
3500051071,ROD. PRESIDENTE DUTRA S/N KM 138.EUGENIO DE MELO,,,230944,454710,-23.162222,-45.786111,419520,7438290,Atlantico Sul-Leste,Sao jose dos campos,Po�o tubular,SIDAS/DAEE FL.306 - P.237,Rio Paraiba do Sul,,SP,Abastecimento industrial,2009-08-06,,,,,,,,,,,,,0,200,,,,,,,,,,,,,,,,,,,,,,,,,,
3500051080,ROD. PRESIDENTE DUTRA KM 36.5,,,230823,454515,-23.139722,-45.754167,422800,7440800,Atlantico Sul-Leste,Cacapava,Po�o tubular,SIDAS/DAEE FL.306 - P.3,Rio Paraiba do Sul,,SP,Abastecimento industrial,1973-03-16,,CORNER S/A,,,,,,,,,,,0,171,,,,,,,,,,,,,,,,,,,,,,,,,,
3500051085,ROD. PRESIDENTE DUTRA KM 136.5,,,230827,454523,-23.140833,-45.756389,422550,7440700,Atlantico Sul-Leste,Cacapava,Po�o tubular,SIDAS/DAEE FL.306 - P.4,Rio Paraiba do Sul,,SP,Abastecimento industrial,1991-07-20,,HIDROGESP,,,,,,,,,,,0,200,,,,,,,,,,,,,,,,,,,,,,,,,,
3500051092,ROD. PRESIDENTE DUTRA KM 141,,,230934,454804,-23.159444,-45.801111,418000,7438600,Atlantico Sul-Leste,Sao jose dos campos,Po�o tubular,SIDAS/DAEE FL.306 - P.5,Rio Paraiba do Sul,,SP,Abastecimento industrial,1973-10-20,,CORNER S/A,,,,,,,,,,,0,162,,,,,,,,,,,,,,,,,,,,,,,,,,
3500051094,AV. TANCREDO NEVES 525.JARDIM CASTANHEIRA,,,231107,454747,-23.185278,-45.796389,418500,7435750,Atlantico Sul-Leste,Sao jose dos campos,Po�o tubular,SIDAS/DAEE FL.306 - P.51,Rio Paraiba do Sul,,SP,Abastecimento urbano,1980-06-30,,HIDROPOCOS LTDA,,,,,,,,,,,0,196,,,,,,,,,,,,,,,,,,,,,,,,,,
3500051100,R. FRANCISCO M. SOUZA 120.JARDIM NOVA MICHIGAN,,,231113,454739,-23.186944,-45.794167,418730,7435570,Atlantico Sul-Leste,Sao jose dos campos,Po�o tubular,SIDAS/DAEE FL.306 - P.63,Rio Paraiba do Sul,,SP,Abastecimento urbano,1989-07-04,,HIDROGESP,,,,,,,,,,,0,160,,,,,,,,,,,,,,,,,,,,,,,,,,
3500051110,R. DAS ORQUIDEAS 05.JARDIM SANTA INES I,,,231018,454731,-23.171667,-45.791944,418930,7437250,Atlantico Sul-Leste,Sao jose dos campos,Po�o tubular,SIDAS/DAEE FL.306 - P.85,Rio Paraiba do Sul,,SP,Abastecimento urbano,1982-09-10,,AIR LIFT LTDA,,,,,,,,,,,0,250.61,,,,,,,,,,,,,,,,,,,,,,,,,,
3500051117,ROD. PRESIDENTE DUTRA KM 133.5.SANTA LUZIA,,,230802,454444,-23.133889,-45.745556,423680,7441470,Atlantico Sul-Leste,Cacapava,Po�o tubular,SIDAS/DAEE FL.307 - P.1,Rio Paraiba do Sul,,SP,,1987-04-16,,AIR DRILL,,,,,,,,,,,0,146,,,,,,,,,,,,,,,,,,,,,,,,,,
3500051118,AV. HENRI NESTLE 1800.VILA ANTONIO AUGUSTO,,,230647,454304,-23.113056,-45.717778,426510,7443790,Atlantico Sul-Leste,Cacapava,Po�o tubular,SIDAS/DAEE FL.307 - P.10,Rio Paraiba do Sul,,SP,Abastecimento industrial,1970-01-28,,CORNER S/A,,,,,,,,,,,0,180,,,,,,,,,,,,,,,,,,,,,,,,,,
3500051129,AV. ADHEMAR PINTO SIQUEIRA S/N.DO GRAMA,,,230721,454351,-23.1225,-45.730833,425160,7442730,Atlantico Sul-Leste,Cacapava,Po�o tubular,SIDAS/DAEE FL.307 - P.110,Rio Paraiba do Sul,,SP,Abastecimento dom�stico,2000-10-08,,,,,,,,,,,,,0,126,,,,,,,,,,,,,,,,,,,,,,,,,,
3500051131,R. JOAO BENEDITO MOREIRA 221.JARDIM MARIA CANDIDA,,,230634,454155,-23.109444,-45.698611,428450,7444200,Atlantico Sul-Leste,Cacapava,Po�o tubular,SIDAS/DAEE FL.307 - P.113,Rio Paraiba do Sul,,SP,Abastecimento dom�stico,2000-10-08,,,,,,,,,,,,,0,100,,,,,,,,,,,,,,,,,,,,,,,,,,
3500051133,AV. D. PEDRO I W 7777.PIRACANGAGUA,,,230344,453710,-23.062222,-45.619444,436550,7449450,Atlantico Sul-Leste,Taubate,Po�o tubular,SIDAS/DAEE FL.307 - P.119,Rio Paraiba do Sul,,SP,Abastecimento dom�stico,2005-03-12,,HIDROGEO,,,,,,,,,,,0,314,,,,,,,,,,,,,,,,,,,,,,,,,,
3500051134,R. DOUTOR MARIANO ALCANTARA.SEDE,,,230644,454201,-23.112222,-45.700278,428300,7443900,Atlantico Sul-Leste,Cacapava,Po�o tubular,SIDAS/DAEE FL.307 - P.12,Rio Paraiba do Sul,,SP,Abastecimento urbano,1979-09-25,,COMP. T. JANER,,,,,,,,,,,0,179.6,,,,,,,,,,,,,,,,,,,,,,,,,,
3500051135,EST. MUNICIPAL PRFESSORA OLIVIA ALEGRE 1191.CAMPO,,,230612,454030,-23.103333,-45.675,430890,7444870,Atlantico Sul-Leste,Cacapava,Po�o tubular,SIDAS/DAEE FL.307 - P.125,Rio Paraiba do Sul,,SP,Abastecimento industrial,2000-10-08,,,,,,,,,,,,,0,70,,,,,,,,,,,,,,,,,,,,,,,,,,
3500051136,FAZENDA NOSSA SENHORA DA GLORIA.BOSSOROCA,,,230700,453704,-23.116667,-45.617778,436742,7443422,Atlantico Sul-Leste,Taubate,Po�o tubular,SIDAS/DAEE FL.307 - P.128,Rio Paraiba do Sul,,SP,Abastecimento dom�stico,2000-10-08,,,,,,,,,,,,,0,100,,,,,,,,,,,,,,,,,,,,,,,,,,
3500051137,AV. DOS BANDEIRANTES 9000 C.PIRACANGAGUA,,,230316,453703,-23.054444,-45.6175,436740,7450330,Atlantico Sul-Leste,Taubate,Po�o escavado(cacimba/cisterna),SIDAS/DAEE FL.307 - P.129,Rio Paraiba do Sul,,SP,Abastecimento industrial,2000-10-08,,,,,,,,,,,,,0,6,,,,,,,,,,,,,,,,,,,,,,,,,,
3500051138,EST. M. SAPE 375.SEDE,,,230734,454233,-23.126111,-45.709167,427400,7442350,Atlantico Sul-Leste,Cacapava,Po�o tubular,SIDAS/DAEE FL.307 - P.13,Rio Paraiba do Sul,,SP,Abastecimento urbano,1979-11-23,,COMP. T. JANER,,,,,,,,,,,0,165,,,,,,,,,,,,,,,,,,,,,,,,,,
3500051141,ROD. VITO ARDITO (SP 62) KM 115.CAMPO GRANDE,,,230524,454039,-23.09,-45.6775,430600,7446360,Atlantico Sul-Leste,Cacapava,Po�o tubular,SIDAS/DAEE FL.307 - P.134,Rio Paraiba do Sul,,SP,Abastecimento industrial,2000-10-08,,,,,,,,,,,,,0,100,,,,,,,,,,,,,,,,,,,,,,,,,,
3500051143,ROD. EDMIR VIANA MOURA 2001 BLOCO B.SANTA LUZIA,,,230719,454409,-23.121944,-45.735833,424650,7442790,Atlantico Sul-Leste,Cacapava,Po�o tubular,SIDAS/DAEE FL.307 - P.137,Rio Paraiba do Sul,,SP,Abastecimento industrial,2006-10-18,,,,,,,,,,,,,0,60,,,,,,,,,,,,,,,,,,,,,,,,,,
3500051144,AV. VEREADOR GERALDO NOGUEIRA DA SILVA S/N.SANTA L,,,230732,454344,-23.125556,-45.728889,425380,7442400,Atlantico Sul-Leste,Cacapava,Po�o tubular,SIDAS/DAEE FL.307 - P.138,Rio Paraiba do Sul,,SP,Abastecimento industrial,2000-10-08,,,,,,,,,,,,,0,70,,,,,,,,,,,,,,,,,,,,,,,,,,
3500051145,ROD. JOAO AMARAL GURGEL 5700.PIEDADE,,,230949,454331,-23.163611,-45.725278,425760,7438190,Atlantico Sul-Leste,Cacapava,Po�o tubular,SIDAS/DAEE FL.307 - P.141,Rio Paraiba do Sul,,SP,Abastecimento industrial,2000-10-08,,,,,,,,,,,,,0,50,,,,,,,,,,,,,,,,,,,,,,,,,,
3500051146,EST. DO TIJUCO PRETO 5751.SERRINHA,,,231030,454159,-23.175,-45.699722,428380,7436950,Atlantico Sul-Leste,Cacapava,Po�o tubular,SIDAS/DAEE FL.307 - P.142,Rio Paraiba do Sul,,SP,Abastecimento industrial,2008-06-26,,,,,,,,,,,,,0,250,,,,,,,,,,,,,,,,,,,,,,,,,,
3500051148,EST. CAMANDUCAIA 5140.PEDREGULHO,,,230249,454450,-23.046944,-45.747222,423450,7451090,Atlantico Sul-Leste,Cacapava,Po�o tubular,SIDAS/DAEE FL.307 - P.145,Rio Paraiba do Sul,,SP,Abastecimento dom�stico,2003-12-17,,JUNDSONDAS POCOS ARTESIANOS,,,,,,,,,,,0,191.8,,,,,,,,,,,,,,,,,,,,,,,,,,
3500051149,AV. AMBROGI SANTOS 1001.DISTRITO INDUSTRIAL QUIRIR,,,230222,453723,-23.039444,-45.623056,436180,7451970,Atlantico Sul-Leste,Taubate,Po�o tubular,SIDAS/DAEE FL.307 - P.146,Rio Paraiba do Sul,,SP,Abastecimento industrial,2007-05-22,,,,,,,,,,,,,0,70,,,,,,,,,,,,,,,,,,,,,,,,,,
3500051150,AV. INDEPENDENCIA 3500.INDEPENDENCIA,,,230251,453551,-23.0475,-45.5975,438790,7451090,Atlantico Sul-Leste,Taubate,Po�o tubular,SIDAS/DAEE FL.307 - P.148,Rio Paraiba do Sul,,SP,Abastecimento industrial,2000-10-08,,,,,,,,,,,,,0,134,,,,,,,,,,,,,,,,,,,,,,,,,,
3500051151,AV. ROBERTO BERTOLETTI 851.DISTRITO INDUSTRIAL PIR,,,230302,453728,-23.050556,-45.624444,436040,7450740,Atlantico Sul-Leste,Taubate,Po�o tubular,SIDAS/DAEE FL.307 - P.150,Rio Paraiba do Sul,,SP,Abastecimento industrial,2009-07-17,,,,,,,,,,,,,0,70,,,,,,,,,,,,,,,,,,,,,,,,,,
3500051152,R. ARTHUR PORTES 101.VILA SAO JOAO,,,230626,454218,-23.107222,-45.705,427800,7444440,Atlantico Sul-Leste,Cacapava,Po�o tubular,SIDAS/DAEE FL.307 - P.151,Rio Paraiba do Sul,,SP,Abastecimento urbano,2000-10-08,,,,,,,,,,,,,0,38,,,,,,,,,,,,,,,,,,,,,,,,,,
3500051154,EST. PROFESSORA OLIVIA ALEGRI 1500.CACAPAVA VELHA,,,230626,454029,-23.107222,-45.674722,430920,7444450,Atlantico Sul-Leste,Cacapava,Po�o tubular,SIDAS/DAEE FL.307 - P.154,Rio Paraiba do Sul,,SP,Abastecimento industrial,2000-10-08,,,,,,,,,,,,,0,80,,,,,,,,,,,,,,,,,,,,,,,,,,
3500051155,AV. ADHEMAR PINTO SIQUEIRA 412 KM 02.GRAMA,,,230710,454351,-23.119444,-45.730833,425180,7443060,Atlantico Sul-Leste,Cacapava,Po�o tubular,SIDAS/DAEE FL.307 - P.155,Rio Paraiba do Sul,,SP,Abastecimento industrial,2000-10-08,,,,,,,,,,,,,0,57,,,,,,,,,,,,,,,,,,,,,,,,,,
3500051156,R. FLORENCIO LANFREDI 130.CACAPAVA VELHA,,,230645,453928,-23.1125,-45.657778,432650,7443880,Atlantico Sul-Leste,Cacapava,Po�o tubular,SIDAS/DAEE FL.307 - P.158,Rio Paraiba do Sul,,SP,Abastecimento dom�stico,2000-10-08,,,,,,,,,,,,,0,216,,,,,,,,,,,,,,,,,,,,,,,,,,
3500051159,AV. FUNDEVAL S/N.SEDE,,,230615,454234,-23.104167,-45.709444,427360,7444760,Atlantico Sul-Leste,Cacapava,Po�o tubular,SIDAS/DAEE FL.307 - P.17,Rio Paraiba do Sul,,SP,Abastecimento urbano,1991-11-24,,HIDROGESP,,,,,,,,,,,0,96.5,,,,,,,,,,,,,,,,,,,,,,,,,,
3500051160,ROD. PRESIDENTE DUTRA KM 13.6,,,230801,454450,-23.133611,-45.747222,423500,7441500,Atlantico Sul-Leste,Cacapava,Po�o tubular,SIDAS/DAEE FL.307 - P.2,Rio Paraiba do Sul,,SP,Abastecimento dom�stico,1990-02-22,,HIDROGESP,,,,,,,,,,,0,169.8,,,,,,,,,,,,,,,,,,,,,,,,,,
3500051161,SP 103 S/N.GUAMIRIM,,,231116,454351,-23.187778,-45.730833,425200,7435500,Atlantico Sul-Leste,Cacapava,Po�o tubular,SIDAS/DAEE FL.307 - P.20,Rio Paraiba do Sul,,SP,Abastecimento urbano,1978-12-12,,HIDROPOCOS LTDA,,,,,,,,,,,0,49,,,,,,,,,,,,,,,,,,,,,,,,,,
3500051162,A MARGEM DIRETA DA ESTACAO PROXIMO AVENIDA CIDADE.,,,230704,453855,-23.117778,-45.648611,433600,7443300,Atlantico Sul-Leste,Cacapava,Po�o tubular,SIDAS/DAEE FL.307 - P.23,Rio Paraiba do Sul,,SP,Abastecimento urbano,1978-03-16,,CORNER S/A,,,,,,,,,,,0,150,,,,,,,,,,,,,,,,,,,,,,,,,,
3500051163,EST. GERMANIA CPS 3 N7501.BAIRRO GERMANIA,,,230904,453900,-23.151111,-45.65,433450,7439600,Atlantico Sul-Leste,Cacapava,Po�o tubular,SIDAS/DAEE FL.307 - P.25,Rio Paraiba do Sul,,SP,,2000-10-08,,CPA-CENTRAL PERF. ARARAQUARA,,,,,,,,,,,0,125,,,,,,,,,,,,,,,,,,,,,,,,,,
3500051164,EST. JOAO BENEDITO MOREIRA 250.RIBEIRAO DOS MUDOS,,,230633,454152,-23.109167,-45.697778,428550,7444220,Atlantico Sul-Leste,Cacapava,Po�o tubular,SIDAS/DAEE FL.307 - P.29,Rio Paraiba do Sul,,SP,Abastecimento urbano,2000-10-08,,,,,,,,,,,,,0,137,,,,,,,,,,,,,,,,,,,,,,,,,,
3500051165,EST. VELHA S.P. RIO KM 118.FAZENDA CAMPO GRANDE,,,230413,453955,-23.070278,-45.665278,431850,7448540,Atlantico Sul-Leste,Cacapava,Po�o tubular,SIDAS/DAEE FL.307 - P.30,Rio Paraiba do Sul,,SP,Abastecimento industrial,2000-10-08,,CORNER S/A,,,,,,,,,,,0,165,,,,,,,,,,,,,,,,,,,,,,,,,,
3500051166,AV. EURICO AMBROSIO DOS SANTOS 1800.PIRACANGAGUA,,,230233,453706,-23.0425,-45.618333,436650,7451650,Atlantico Sul-Leste,Taubate,Po�o tubular,SIDAS/DAEE FL.307 - P.31,Rio Paraiba do Sul,,SP,Abastecimento industrial,1996-01-15,,HIDROGESP,,,,,,,,,,,0,370,,,,,,,,,,,,,,,,,,,,,,,,,,
3500051167,AV. EURICO AMBROSIO DOS SANTOS 2100.PIRACANGAGUA,,,230251,453701,-23.0475,-45.616944,436800,7451100,Atlantico Sul-Leste,Taubate,Po�o tubular,SIDAS/DAEE FL.307 - P.32,Rio Paraiba do Sul,,SP,Abastecimento industrial,1995-10-20,,RAFAEL FARO POLITI,,,,,,,,,,,0,350,,,,,,,,,,,,,,,,,,,,,,,,,,
3500051168,AV. EURICO AMBROGI SANTOS 2301,,,230243,453659,-23.045278,-45.616389,436840,7451330,Atlantico Sul-Leste,Taubate,Po�o tubular,SIDAS/DAEE FL.307 - P.33,Rio Paraiba do Sul,,SP,Outros (lazer.etc.),1997-05-01,,TECNOPOCOS (PARANA),,,,,,,,,,,0,200,,,,,,,,,,,,,,,,,,,,,,,,,,
3500051169,AV. EURICO AMBROGI SANTOS 1295.VALE DO PIRACANGAGU,,,230234,453713,-23.042778,-45.620278,436450,7451600,Atlantico Sul-Leste,Taubate,Po�o tubular,SIDAS/DAEE FL.307 - P.34,Rio Paraiba do Sul,,SP,Abastecimento industrial,1997-10-01,,,,,,,,,,,,,0,80,,,,,,,,,,,,,,,,,,,,,,,,,,
3500051171,R. CAPITAO AIRTON ARAUJO S/N.VILA GALVAO,,,230646,454302,-23.112778,-45.717222,426550,7443800,Atlantico Sul-Leste,Cacapava,Po�o tubular,SIDAS/DAEE FL.307 - P.37,Rio Paraiba do Sul,,SP,Abastecimento industrial,1997-04-23,,HIDROGESP,,,,,,,,,,,0,105,,,,,,,,,,,,,,,,,,,,,,,,,,
3500051173,ROD. PRESIDENTE DUTRA KM 134.SANTA LUZIA,,,230753,454441,-23.131389,-45.744722,423750,7441750,Atlantico Sul-Leste,Cacapava,Po�o tubular,SIDAS/DAEE FL.307 - P.40,Rio Paraiba do Sul,,SP,Abastecimento industrial,1998-02-05,,GEOPLAN,,,,,,,,,,,0,171,,,,,,,,,,,,,,,,,,,,,,,,,,
3500051175,EST. DE GERMANA KM 03.CAMPO GRANDE,,,230645,454105,-23.1125,-45.684722,429900,7443850,Atlantico Sul-Leste,Cacapava,Po�o tubular,SIDAS/DAEE FL.307 - P.43,Rio Paraiba do Sul,,SP,Abastecimento industrial,1978-06-02,,AIR LIFT LTDA,,,,,,,,,,,0,181,,,,,,,,,,,,,,,,,,,,,,,,,,
3500051176,ROD. PRESIDENTE DUTRA KM 133 (MARGINAL FUJI).SANTA,,,230808,454457,-23.135556,-45.749167,423300,7441280,Atlantico Sul-Leste,Cacapava,Po�o tubular,SIDAS/DAEE FL.307 - P.44,Rio Paraiba do Sul,,SP,Abastecimento industrial,1998-10-31,,HIDROGESP,,,,,,,,,,,0,195.54,,,,,,,,,,,,,,,,,,,,,,,,,,
3500051177,ROD. PRESIDENTE DUTRA KM 133.SANTA LUZIA II,,,230817,454450,-23.138056,-45.747222,423490,7441000,Atlantico Sul-Leste,Cacapava,Po�o tubular,SIDAS/DAEE FL.307 - P.45,Rio Paraiba do Sul,,SP,Abastecimento industrial,1998-06-22,,HIDROGESP,,,,,,,,,,,0,200,,,,,,,,,,,,,,,,,,,,,,,,,,
3500051178,AV. EURICO AMBROGI DOS SANTOS 1900 A.INDUSTRIAL PI,,,230307,453724,-23.051944,-45.623333,436150,7450600,Atlantico Sul-Leste,Taubate,Po�o tubular,SIDAS/DAEE FL.307 - P.56,Rio Paraiba do Sul,,SP,Abastecimento industrial,1973-08-07,,,,,,,,,,,,,0,100,,,,,,,,,,,,,,,,,,,,,,,,,,
3500051183,ROD. JOAO DO AMARAL GURGEL KM 1.7.SAPE,,,230743,454309,-23.128611,-45.719167,426370,7442050,Atlantico Sul-Leste,Cacapava,Po�o tubular,SIDAS/DAEE FL.307 - P.60,Rio Paraiba do Sul,,SP,Abastecimento dom�stico,1994-07-04,,GEOPLAN,,,,,,,,,,,0,120.5,,,,,,,,,,,,,,,,,,,,,,,,,,
3500051184,ROD. JOAO DO AMARAL GURGEL KM 1.7.SAPE,,,230733,454248,-23.125833,-45.713333,426960,7442360,Atlantico Sul-Leste,Cacapava,Po�o tubular,SIDAS/DAEE FL.307 - P.61,Rio Paraiba do Sul,,SP,Abastecimento dom�stico,2000-12-01,,GEOPLAN,,,,,,,,,,,0,212,,,,,,,,,,,,,,,,,,,,,,,,,,
3500051185,AV. HEMNRY NESTLE 2600.BAIRRO DA GRAMA,,,230714,454326,-23.120556,-45.723889,425880,7442950,Atlantico Sul-Leste,Cacapava,Po�o tubular,SIDAS/DAEE FL.307 - P.62,Rio Paraiba do Sul,,SP,Abastecimento industrial,2000-10-08,,CORNER S/A,,,,,,,,,,,0,149,,,,,,,,,,,,,,,,,,,,,,,,,,
3500051188,AV. EURICO AMBROGI DOS SANTOS 2400.INDUSTRIAL PIRA,,,230323,453722,-23.056389,-45.622778,436200,7450100,Atlantico Sul-Leste,Taubate,Po�o tubular,SIDAS/DAEE FL.307 - P.65,Rio Paraiba do Sul,,SP,Abastecimento industrial,2000-10-08,,,,,,,,,,,,,0,100,,,,,,,,,,,,,,,,,,,,,,,,,,
3500051189,ROD. JOAO DO AMARAL GURGEL KM 2.7.DO SAPE,,,230818,454321,-23.138333,-45.7225,426030,7440970,Atlantico Sul-Leste,Cacapava,Po�o tubular,SIDAS/DAEE FL.307 - P.66,Rio Paraiba do Sul,,SP,Abastecimento industrial,2001-07-07,,,,,,,,,,,,,0,166,,,,,,,,,,,,,,,,,,,,,,,,,,
3500051193,EST. DA OLARIA.GUAMIRIM,,,231050,454429,-23.180556,-45.741389,424120,7436300,Atlantico Sul-Leste,Cacapava,Po�o tubular,SIDAS/DAEE FL.307 - P.7,Rio Paraiba do Sul,,SP,,1992-05-21,,HIDROGESP,,,,,,,,,,,0,204,,,,,,,,,,,,,,,,,,,,,,,,,,
3500051194,EST. MUNICIPAL BORDA DA MATA S/N.DA GRAMA,,,230804,454207,-23.134444,-45.701944,428140,7441420,Atlantico Sul-Leste,Cacapava,Po�o tubular,SIDAS/DAEE FL.307 - P.70,Rio Paraiba do Sul,,SP,Abastecimento urbano,2002-08-21,,,,,,,,,,,,,0,105.43,,,,,,,,,,,,,,,,,,,,,,,,,,
3500051195,AV. BRASIL S/N.CENTRO,,,230615,454235,-23.104167,-45.709722,427330,7444780,Atlantico Sul-Leste,Cacapava,Po�o tubular,SIDAS/DAEE FL.307 - P.71,Rio Paraiba do Sul,,SP,Abastecimento dom�stico,2003-07-26,,JUNDSONDAS POCOS ARTESIANOS,,,,,,,,,,,0,111,,,,,,,,,,,,,,,,,,,,,,,,,,
3500051196,AV. VEREADOR GERALDO NOGUEIRA DA SILVA 521.VILA CE,,,230705,454241,-23.118056,-45.711389,427170,7443220,Atlantico Sul-Leste,Cacapava,Po�o tubular,SIDAS/DAEE FL.307 - P.72,Rio Paraiba do Sul,,SP,Abastecimento industrial,2000-10-08,,AGUABRAS LTDA,,,,,,,,,,,0,190,,,,,,,,,,,,,,,,,,,,,,,,,,
3500051204,AV. HENRI NESTLE 1800.VILA ANTONIO AUGUSTO,,,230654,454256,-23.115,-45.715556,426730,7443560,Atlantico Sul-Leste,Cacapava,Po�o tubular,SIDAS/DAEE FL.307 - P.8,Rio Paraiba do Sul,,SP,Abastecimento industrial,1954-10-02,,CORNER S/A,,,,,,,,,,,0,160,,,,,,,,,,,,,,,,,,,,,,,,,,
3500051215,AV. HENRI NESTLE  1800.VILA ANTONIO AUGUSTO,,,230652,454259,-23.114444,-45.716389,426640,7443640,Atlantico Sul-Leste,Cacapava,Po�o tubular,SIDAS/DAEE FL.307 - P.9,Rio Paraiba do Sul,,SP,Abastecimento industrial,1970-01-28,,CORNER S/A,,,,,,,,,,,0,160,,,,,,,,,,,,,,,,,,,,,,,,,,
3500057502,ROD. PRES. DUTRA. KM 130,,,230711,454302,-23.119722,-45.717222,426570,7443060,Atlantico Sul-Leste,Cacapava,Po�o tubular,SIDAS/DAEE FL.30 - P.7011,Rio Paraiba do Sul,,SP,Abastecimento industrial,2004-12-06,,,,,,,,,,,,,0,104,,,,,,,,,,,,,,,,,,,,,,,,,,
3500057618,ROD. PRESID.DUTRA. KM 136,,,230824,454546,-23.14,-45.762778,421920,7440790,Atlantico Sul-Leste,Sao jose dos campos,Po�o tubular,SIDAS/DAEE FL.306 - P.254,Rio Paraiba do Sul,,SP,Abastecimento industrial,2007-06-17,,,,,,,,,,,,,0,200,,,,,,,,,,,,,,,,,,,,,,,,,,
3500057621,ETR DO CAJURU. 250,,,231110,454832,-23.186111,-45.808889,417220,7435640,Atlantico Sul-Leste,Sao jose dos campos,,SIDAS/DAEE FL.306 - P.259,Rio Paraiba do Sul,,SP,,2000-10-03,,,,,,,,,,,,,0,60,,,,,,,,,,,,,,,,,,,,,,,,,,
3500057627,ROD. PRES. DUTRA. KM 136.5,,,230822,454523,-23.139444,-45.756389,422570,7440830,Atlantico Sul-Leste,Cacapava,Po�o tubular,SIDAS/DAEE FL.306 - P.4,Rio Paraiba do Sul,,SP,Abastecimento industrial,1991-07-20,,HIDROGESP - HIDROGEOLOGIA SONDAGENS E PERFUR. LTDA,,,,,,,,,,,0,200,,,,,,,,,,,,,,,,,,,,,,,,,,
3500057628,ROD. FLORIANO RODRIGUES PINHEIRO.SP123/,,,230315,453731,-23.054167,-45.625278,435955,7450360,Atlantico Sul-Leste,Taubate,Po�o tubular,SIDAS/DAEE FL.307 - P.117,Rio Paraiba do Sul,,SP,Abastecimento dom�stico,2005-05-25,,,,,,,,,,,,,0,200,,,,,,,,,,,,,,,,,,,,,,,,,,
3500057629,AV. EURICO AMBROGI SANTOS. 2400,,,230304,453653,-23.051111,-45.614722,437020,7450700,Atlantico Sul-Leste,Taubate,Po�o tubular,SIDAS/DAEE FL.307 - P.118,Rio Paraiba do Sul,,SP,Abastecimento industrial,2005-02-12,,,,,,,,,,,,,0,124,,,,,,,,,,,,,,,,,,,,,,,,,,
3500057631,R.JOSE BONIFACIO. 33,,,230556,454237,-23.098889,-45.710278,427260,7445350,Atlantico Sul-Leste,Cacapava,Po�o tubular,SIDAS/DAEE FL.307 - P.157,Rio Paraiba do Sul,,SP,Abastecimento dom�stico,2005-06-27,,,,,,,,,,,,,0,200,,,,,,,,,,,,,,,,,,,,,,,,,,
3500057633,RUA ESTADOS UNIDOS. 250,,,230630,454311,-23.108333,-45.719722,426290,7444300,Atlantico Sul-Leste,Cacapava,Po�o tubular,SIDAS/DAEE FL.307 - P.164,Rio Paraiba do Sul,,SP,Abastecimento dom�stico,2009-11-11,,,,,,,,,,,,,0,94,,,,,,,,,,,,,,,,,,,,,,,,,,
3500057635,RUA ARTUR PORTES. 101,,,230626,454221,-23.107222,-45.705833,427730,7444450,Atlantico Sul-Leste,Cacapava,Po�o tubular,SIDAS/DAEE FL.307 - P.167,Rio Paraiba do Sul,,SP,Abastecimento dom�stico,2010-08-13,,,,,,,,,,,,,0,60,,,,,,,,,,,,,,,,,,,,,,,,,,
3500057638,AVENIDA CABLETECH. 601,,,231025,454340,-23.173611,-45.727778,425520,7437090,Atlantico Sul-Leste,Cacapava,Po�o tubular,SIDAS/DAEE FL.307 - P.171,Rio Paraiba do Sul,,SP,Abastecimento industrial,2010-04-22,,,,,,,,,,,,,0,100,,,,,,,,,,,,,,,,,,,,,,,,,,
3500057639,AV. DA SAUDADE N. 26,,,230604,454200,-23.101111,-45.7,428310,7445100,Atlantico Sul-Leste,Cacapava,,SIDAS/DAEE FL.307 - P.172,Rio Paraiba do Sul,,SP,,2000-10-03,,,,,,,,,,,,,0,60,,,,,,,,,,,,,,,,,,,,,,,,,,
3500057640,EST. MUNIC. PROF.OLIVIA ALEGRI. S/N,,,230637,454042,-23.110278,-45.678333,430550,7444100,Atlantico Sul-Leste,Cacapava,Po�o tubular,SIDAS/DAEE FL.307 - P.183,Rio Paraiba do Sul,,SP,Abastecimento dom�stico,2013-04-15,,,,,,,,,,,,,0,181,,,,,,,,,,,,,,,,,,,,,,,,,,
3500057641,ROD. DR.EDMIR VIANA DE MOURA.5470,,,230731,454426,-23.125278,-45.740556,424180,7442420,Atlantico Sul-Leste,Cacapava,Po�o tubular,SIDAS/DAEE FL.307 - P.186,Rio Paraiba do Sul,,SP,Abastecimento industrial,2013-11-04,,,,,,,,,,,,,0,117.5,,,,,,,,,,,,,,,,,,,,,,,,,,
3500057643,AV. HENRY NESTKE.3.100,,,230706,454331,-23.118333,-45.725278,425730,7443200,Atlantico Sul-Leste,Cacapava,Po�o tubular,SIDAS/DAEE FL.307 - P.36,Rio Paraiba do Sul,,SP,Abastecimento industrial,1998-12-01,,,,,,,,,,,,,0,84,,,,,,,,,,,,,,,,,,,,,,,,,,
3500057644,AV. D.PEDRO I. W.7777,,,230337,453658,-23.060278,-45.616111,436890,7449660,Atlantico Sul-Leste,Taubate,Po�o tubular,SIDAS/DAEE FL.307 - P.38,Rio Paraiba do Sul,,SP,Abastecimento industrial,1997-05-23,,CPA-CENTRAL PERF.ARARAQUARA LTDA,,,,,,,,,,,0,393,,,,,,,,,,,,,,,,,,,,,,,,,,
3500057645,AV. EURICO AMBROGI DOS SANTOS 2400,,,230306,453653,-23.051667,-45.614722,437030,7450640,Atlantico Sul-Leste,Taubate,Po�o tubular,SIDAS/DAEE FL.307 - P.65,Rio Paraiba do Sul,,SP,Abastecimento industrial,2011-10-07,,,,,,,,,,,,,0,100,,,,,,,,,,,,,,,,,,,,,,,,,,
